{"type": "FeatureCollection", "features": [ {"type": "Feature", "properties": {"norad_id": 43565, "name": "GSAT0222 (GALILEO 26)", "group": "gnss", "lat": 52.56747126336295, "lon": 109.35223998158057, "alt_km": 23232.44402093614, "timestamp": "2025-12-18T04:58:34.820969+00:00", "meta": {"OBJECT_NAME": "GSAT0222 (GALILEO 26)", "OBJECT_ID": "2018-060B", "EPOCH": "2025-12-17T10:37:36.955776", "MEAN_MOTION": 1.70475657, "ECCENTRICITY": 0.0006092, "INCLINATION": 57.2302, "RA_OF_ASC_NODE": 346.6935, "ARG_OF_PERICENTER": 265.3285, "MEAN_ANOMALY": 94.6178, "EPHEMERIS_TYPE": 0, "CLASSIFICATION_TYPE": "U", "NORAD_CAT_ID": 43565, "ELEMENT_SET_NO": 999, "REV_AT_EPOCH": 4611, "BSTAR": 0, "MEAN_MOTION_DOT": -7.8e-07, "MEAN_MOTION_DDOT": 0}, "tle": {"line1": "1 43565U 18060B   25351.44278884 -.00000078  00000+0  00000+0 0  9993", "line2": "2 43565  57.2302 346.6935 0006092 265.3285  94.6178  1.70475657 46117"}}, "geometry": {"type": "Point", "coordinates": [109.35223998158057, 52.56747126336295]}}, {"type": "Feature", "properties": {"norad_id": 43566, "name": "GSAT0219 (GALILEO 23)", "group": "gnss", "lat": -22.03298952719314, "lon": -28.444086603645346, "alt_km": 23212.885799991447, "timestamp": "2025-12-18T04:58:34.820983+00:00", "meta": {"OBJECT_NAME": "GSAT0219 (GALILEO 23)", "OBJECT_ID": "2018-060C", "EPOCH": "2025-12-15T21:42:00.874656", "MEAN_MOTION": 1.70475845, "ECCENTRICITY": 0.00058258, "INCLINATION": 57.2298, "RA_OF_ASC_NODE": 346.7365, "ARG_OF_PERICENTER": 287.9846, "MEAN_ANOMALY": 71.9699, "EPHEMERIS_TYPE": 0, "CLASSIFICATION_TYPE": "U", "NORAD_CAT_ID": 43566, "ELEMENT_SET_NO": 999, "REV_AT_EPOCH": 4606, "BSTAR": 0, "MEAN_MOTION_DOT": -8.2e-07, "MEAN_MOTION_DDOT": 0}, "tle": {"line1": "1 43566U 18060C   25349.90417679 -.00000082  00000+0  00000+0 0  9994", "line2": "2 43566  57.2298 346.7365 0005825 287.9846  71.9699  1.70475845 46065"}}, "geometry": {"type": "Point", "coordinates": [-28.444086603645346, -22.03298952719314]}}, {"type": "Feature", "properties": {"norad_id": 43567, "name": "GSAT0220 (GALILEO 24)", "group": "gnss", "lat": -14.917981911247427, "lon": 176.55325009992526, "alt_km": 23223.41704305562, "timestamp": "2025-12-18T04:58:34.820996+00:00", "meta": {"OBJECT_NAME": "GSAT0220 (GALILEO 24)", "OBJECT_ID": "2018-060D", "EPOCH": "2025-12-13T18:41:25.404000", "MEAN_MOTION": 1.70475925, "ECCENTRICITY": 0.00061008, "INCLINATION": 57.2299, "RA_OF_ASC_NODE": 346.7937, "ARG_OF_PERICENTER": 285.541, "MEAN_ANOMALY": 74.4106, "EPHEMERIS_TYPE": 0, "CLASSIFICATION_TYPE": "U", "NORAD_CAT_ID": 43567, "ELEMENT_SET_NO": 999, "REV_AT_EPOCH": 4601, "BSTAR": 0, "MEAN_MOTION_DOT": -8.5e-07, "MEAN_MOTION_DDOT": 0}, "tle": {"line1": "1 43567U 18060D   25347.77876625 -.00000085  00000+0  00000+0 0  9991", "line2": "2 43567  57.2299 346.7937 0006100 285.5410  74.4106  1.70475925 46015"}}, "geometry": {"type": "Point", "coordinates": [176.55325009992526, -14.917981911247427]}}, {"type": "Feature", "properties": {"norad_id": 43581, "name": "BEIDOU-3 M5 (C23)", "group": "gnss", "lat": 28.72298188036262, "lon": -148.12695863674818, "alt_km": 21520.281640562225, "timestamp": "2025-12-18T04:58:34.821008+00:00", "meta": {"OBJECT_NAME": "BEIDOU-3 M5 (C23)", "OBJECT_ID": "2018-062A", "EPOCH": "2025-12-17T01:53:59.361792", "MEAN_MOTION": 1.86228923, "ECCENTRICITY": 0.00020674, "INCLINATION": 54.0895, "RA_OF_ASC_NODE": 188.4955, "ARG_OF_PERICENTER": 356.8892, "MEAN_ANOMALY": 3.1782, "EPHEMERIS_TYPE": 0, "CLASSIFICATION_TYPE": "U", "NORAD_CAT_ID": 43581, "ELEMENT_SET_NO": 999, "REV_AT_EPOCH": 5024, "BSTAR": 0, "MEAN_MOTION_DOT": 1.14e-06, "MEAN_MOTION_DDOT": 0}, "tle": {"line1": "1 43581U 18062A   25351.07915928  .00000114  00000+0  00000+0 0  9999", "line2": "2 43581  54.0895 188.4955 0002067 356.8892   3.1782  1.86228923 50243"}}, "geometry": {"type": "Point", "coordinates": [-148.12695863674818, 28.72298188036262]}}, {"type": "Feature", "properties": {"norad_id": 43582, "name": "BEIDOU-3 M6 (C24)", "group": "gnss", "lat": 39.3773189400556, "lon": -28.06256767470143, "alt_km": 21519.573849688622, "timestamp": "2025-12-18T04:58:34.821019+00:00", "meta": {"OBJECT_NAME": "BEIDOU-3 M6 (C24)", "OBJECT_ID": "2018-062B", "EPOCH": "2025-12-16T22:36:47.503008", "MEAN_MOTION": 1.86229876, "ECCENTRICITY": 0.00079021, "INCLINATION": 54.0891, "RA_OF_ASC_NODE": 188.4892, "ARG_OF_PERICENTER": 48.1398, "MEAN_ANOMALY": 311.9965, "EPHEMERIS_TYPE": 0, "CLASSIFICATION_TYPE": "U", "NORAD_CAT_ID": 43582, "ELEMENT_SET_NO": 999, "REV_AT_EPOCH": 5024, "BSTAR": 0, "MEAN_MOTION_DOT": 1.14e-06, "MEAN_MOTION_DDOT": 0}, "tle": {"line1": "1 43582U 18062B   25350.94221647  .00000114  00000+0  00000+0 0  9993", "line2": "2 43582  54.0891 188.4892 0007902  48.1398 311.9965  1.86229876 50246"}}, "geometry": {"type": "Point", "coordinates": [-28.06256767470143, 39.3773189400556]}}, {"type": "Feature", "properties": {"norad_id": 43602, "name": "BEIDOU-3 M12 (C26)", "group": "gnss", "lat": 8.047027126832793, "lon": 1.3207240260824396, "alt_km": 21543.79471504503, "timestamp": "2025-12-18T04:58:34.821031+00:00", "meta": {"OBJECT_NAME": "BEIDOU-3 M12 (C26)", "OBJECT_ID": "2018-067A", "EPOCH": "2025-12-15T19:20:53.031840", "MEAN_MOTION": 1.86227731, "ECCENTRICITY": 0.00092007, "INCLINATION": 54.1833, "RA_OF_ASC_NODE": 187.259, "ARG_OF_PERICENTER": 40.7418, "MEAN_ANOMALY": 319.394, "EPHEMERIS_TYPE": 0, "CLASSIFICATION_TYPE": "U", "NORAD_CAT_ID": 43602, "ELEMENT_SET_NO": 999, "REV_AT_EPOCH": 4970, "BSTAR": 0, "MEAN_MOTION_DOT": 1.15e-06, "MEAN_MOTION_DDOT": 0}, "tle": {"line1": "1 43602U 18067A   25349.80616935  .00000115  00000+0  00000+0 0  9993", "line2": "2 43602  54.1833 187.2590 0009200  40.7418 319.3940  1.86227731 49704"}}, "geometry": {"type": "Point", "coordinates": [1.3207240260824396, 8.047027126832793]}}, {"type": "Feature", "properties": {"norad_id": 43603, "name": "BEIDOU-3 M11 (C25)", "group": "gnss", "lat": 52.906315008011696, "lon": -99.98018418534016, "alt_km": 21510.802792934606, "timestamp": "2025-12-18T04:58:34.821042+00:00", "meta": {"OBJECT_NAME": "BEIDOU-3 M11 (C25)", "OBJECT_ID": "2018-067B", "EPOCH": "2025-12-17T00:21:01.872864", "MEAN_MOTION": 1.86227285, "ECCENTRICITY": 0.00055921, "INCLINATION": 54.1804, "RA_OF_ASC_NODE": 187.182, "ARG_OF_PERICENTER": 36.5835, "MEAN_ANOMALY": 323.5212, "EPHEMERIS_TYPE": 0, "CLASSIFICATION_TYPE": "U", "NORAD_CAT_ID": 43603, "ELEMENT_SET_NO": 999, "REV_AT_EPOCH": 4975, "BSTAR": 0, "MEAN_MOTION_DOT": 1.14e-06, "MEAN_MOTION_DDOT": 0}, "tle": {"line1": "1 43603U 18067B   25351.01460501  .00000114  00000+0  00000+0 0  9995", "line2": "2 43603  54.1804 187.1820 0005592  36.5835 323.5212  1.86227285 49752"}}, "geometry": {"type": "Point", "coordinates": [-99.98018418534016, 52.906315008011696]}}, {"type": "Feature", "properties": {"norad_id": 43622, "name": "BEIDOU-3 M13 (C32)", "group": "gnss", "lat": 52.09852043049956, "lon": -169.62042389065522, "alt_km": 21538.438846608264, "timestamp": "2025-12-18T04:58:34.821055+00:00", "meta": {"OBJECT_NAME": "BEIDOU-3 M13 (C32)", "OBJECT_ID": "2018-072A", "EPOCH": "2025-12-16T10:25:06.248640", "MEAN_MOTION": 1.86231042, "ECCENTRICITY": 0.00060076, "INCLINATION": 56.4627, "RA_OF_ASC_NODE": 68.6976, "ARG_OF_PERICENTER": 299.0037, "MEAN_ANOMALY": 60.9582, "EPHEMERIS_TYPE": 0, "CLASSIFICATION_TYPE": "U", "NORAD_CAT_ID": 43622, "ELEMENT_SET_NO": 999, "REV_AT_EPOCH": 4925, "BSTAR": 0, "MEAN_MOTION_DOT": -7.9e-07, "MEAN_MOTION_DDOT": 0}, "tle": {"line1": "1 43622U 18072A   25350.43410010 -.00000079  00000+0  00000+0 0  9998", "line2": "2 43622  56.4627  68.6976 0006007 299.0037  60.9582  1.86231042 49251"}}, "geometry": {"type": "Point", "coordinates": [-169.62042389065522, 52.09852043049956]}}, {"type": "Feature", "properties": {"norad_id": 43623, "name": "BEIDOU-3 M14 (C33)", "group": "gnss", "lat": -15.802633038381304, "lon": -100.55285691014565, "alt_km": 21536.778853333653, "timestamp": "2025-12-18T04:58:34.821068+00:00", "meta": {"OBJECT_NAME": "BEIDOU-3 M14 (C33)", "OBJECT_ID": "2018-072B", "EPOCH": "2025-12-17T08:57:48.957984", "MEAN_MOTION": 1.86231002, "ECCENTRICITY": 0.00033285, "INCLINATION": 56.4654, "RA_OF_ASC_NODE": 68.6605, "ARG_OF_PERICENTER": 332.8139, "MEAN_ANOMALY": 27.1942, "EPHEMERIS_TYPE": 0, "CLASSIFICATION_TYPE": "U", "NORAD_CAT_ID": 43623, "ELEMENT_SET_NO": 999, "REV_AT_EPOCH": 4926, "BSTAR": 0, "MEAN_MOTION_DOT": -7.3e-07, "MEAN_MOTION_DDOT": 0}, "tle": {"line1": "1 43623U 18072B   25351.37348331 -.00000073  00000+0  00000+0 0  9993", "line2": "2 43623  56.4654  68.6605 0003328 332.8139  27.1942  1.86231002 49265"}}, "geometry": {"type": "Point", "coordinates": [-100.55285691014565, -15.802633038381304]}}, {"type": "Feature", "properties": {"norad_id": 43647, "name": "BEIDOU-3 M16 (C35)", "group": "gnss", "lat": 54.12015762387478, "lon": 42.17360628015234, "alt_km": 21515.94166874057, "timestamp": "2025-12-18T04:58:34.821080+00:00", "meta": {"OBJECT_NAME": "BEIDOU-3 M16 (C35)", "OBJECT_ID": "2018-078A", "EPOCH": "2025-12-16T10:58:34.332384", "MEAN_MOTION": 1.86232417, "ECCENTRICITY": 0.00072794, "INCLINATION": 54.2586, "RA_OF_ASC_NODE": 306.3912, "ARG_OF_PERICENTER": 19.6101, "MEAN_ANOMALY": 340.4043, "EPHEMERIS_TYPE": 0, "CLASSIFICATION_TYPE": "U", "NORAD_CAT_ID": 43647, "ELEMENT_SET_NO": 999, "REV_AT_EPOCH": 4875, "BSTAR": 0, "MEAN_MOTION_DOT": -9.5e-07, "MEAN_MOTION_DDOT": 0}, "tle": {"line1": "1 43647U 18078A   25350.45734181 -.00000095  00000+0  00000+0 0  9999", "line2": "2 43647  54.2586 306.3912 0007279  19.6101 340.4043  1.86232417 48759"}}, "geometry": {"type": "Point", "coordinates": [42.17360628015234, 54.12015762387478]}}]}